MOLNIYA 2-9             
1 07276U 74026A   24163.00769246  .00000120  00000+0  00000+0 0  9992
2 07276  64.2921 129.2781 6439017 271.1016  21.2288  2.45098277267143
MOLNIYA 2-10            
1 07376U 74056A   24160.84941454  .00000648  00000+0  00000+0 0  9993
2 07376  65.1608  17.7554 6846553 279.4005  14.8390  2.01068460364885
MOLNIYA 1-S             
1 07392U 74060A   24164.09475965 -.00000319  00000+0  00000+0 0  9992
2 07392   3.2593 270.8023 0010060 235.2554 253.2143  1.00240058126784
MOLNIYA 1-29            
1 07780U 75036A   24162.98397869  .00000124  00000+0 -70949-1 0  9994
2 07780  63.4680 140.1241 6709113 283.9702  14.4533  2.00584089360153
MOLNIYA 2-14            
1 08195U 75081A   24163.12836929  .00000885  00000+0  00000+0 0  9999
2 08195  63.6291 113.0055 6706756 288.8262  13.0829  2.02060079357532
MOLNIYA 1-32            
1 08601U 76006A   24160.43538803  .00000053  00000+0  00000+0 0  9997
2 08601  63.6534 209.4146 6842829 282.1642  14.2121  2.00089029 67109
MOLNIYA 1-36            
1 09880U 77021A   24161.51487319 -.00000996  00000+0  00000+0 0  9997
2 09880  63.5853 184.6371 6767017 287.0542  13.2349  2.00739973243875
MOLNIYA 3-8             
1 10455U 77105A   24163.27160264 -.00000558  00000+0  00000+0 0  9996
2 10455  63.6360 256.2599 7067890 282.1024  12.7756  2.00430629341603
MOLNIYA 1-40            
1 10925U 78055A   24163.41500740 -.00000699  00000+0  00000+0 0  9992
2 10925  63.9136 307.0026 7154344 279.4929  12.7991  2.00546771337256
MOLNIYA 3-10            
1 11057U 78095A   24163.18440596 -.00000135  00000+0 -28273-2 0  9990
2 11057  63.2788 138.3348 5656954 314.7811  11.1556  4.09908145413439
MOLNIYA 3-13            
1 11896U 80063A   24162.68774764 -.00000195  00000+0  00000+0 0  9990
2 11896  63.3293  36.5967 7325361 278.1703  11.9378  2.00580726321627
MOLNIYA 1-52            
1 13012U 81123A   24162.17309265  .00001620  00000+0  24628-1 0  9991
2 13012  61.5317 178.2129 7158578 264.3508  17.7451  2.00704592311099
MOLNIYA 1-53            
1 13070U 82015A   24163.36578180 -.00001008  00000+0 -35923-2 0  9995
2 13070  62.6608 129.0379 6938445 283.3065  13.1600  2.00466961309791
MOLNIYA 3-20            
1 13875U 83015A   24163.71202580 -.00000861  00000+0 -80922-2 0  9991
2 13875  62.0792 242.0931 7191693 266.0632  16.8797  2.00803991238300
MOLNIYA 1-63            
1 15429U 84124A   24161.24317722 -.00000928  00000+0  00000+0 0  9990
2 15429  63.6488  90.5779 7036770 256.2515 344.2164  2.00857484289259
MOLNIYA 3-24            
1 15738U 85040A   24163.40761243  .00000009  00000+0  47981-3 0  9994
2 15738  62.8140 299.8113 6910042 249.5443  28.0020  2.55652696322402
MOLNIYA 3-27            
1 16393U 85117A   24160.45458069 -.00000121  00000+0  00000+0 0  9991
2 16393  63.4276 338.7654 7174588 245.6980  27.3034  2.12399869289515
MOLNIYA 1-69            
1 17078U 86089A   24157.72624806 -.00000885  00000+0  00000+0 0  9998
2 17078  63.8473 111.8043 7021415 252.9425  24.5518  2.00479466275268
MOLNIYA 3-31            
1 17328U 87008A   24162.65389400 -.00000607  00000+0 -73453-3 0  9993
2 17328  63.2658  30.0844 7381592 253.3761  20.3452  2.00594636270396
MOLNIYA 1-71            
1 18946U 88017A   24162.63647259  .00000427  00000+0  13375-2 0  9992
2 18946  63.0112  16.9837 7458021 258.0867  17.4378  2.00665574265581
MOLNIYA 1-75            
1 19807U 89014A   24163.42677657  .00000227  00000+0  00000+0 0  9996
2 19807  63.8370 210.8510 6618124 261.8383  23.9961  2.00568005258539
MOLNIYA 1-80            
1 21118U 91012A   24162.66225022 -.00000078  00000+0  00000+0 0  9990
2 21118  65.0187 259.1867 6496059 267.7958  22.2965  2.05237584245848
MOLNIYA 3-40            
1 21196U 91022A   24163.43085837  .00001016  00000+0  00000+0 0  9993
2 21196  64.8306 253.2091 6528394 264.9870  23.3304  2.03009216244371
MOLNIYA 1-81            
1 21426U 91043A   24161.30968308  .00000058  00000+0  00000+0 0  9994
2 21426  63.5688 256.7562 6865855 263.2357  20.9876  2.00594142241665
MOLNIYA 3-41            
1 21706U 91065A   24159.70374311 -.00001174  00000+0  00000+0 0  9996
2 21706  63.8769  77.0183 7246772 251.1942  22.9788  2.04353179241605
MOLNIYA 3-42            
1 22178U 92067A   24163.26828498  .00000126  00000+0  00000+0 0  9994
2 22178  64.6696 138.5942 6600965 255.3677  27.7731  2.20435169240496
MOLNIYA 1-86            
1 22671U 93035A   24164.19015573  .00001133  00000+0  96410-3 0  9996
2 22671  63.0245 173.7084 4893218  18.7346 354.3541  5.63323024393103
MOLNIYA 1-87            
1 22949U 93079A   24162.68030359  .00000264  00000+0  00000+0 0  9993
2 22949  64.8988   6.9269 6975882 278.1996  14.3023  2.02874770 89625
MOLNIYA 1-88            
1 23420U 94081A   24162.86836460 -.00000066  00000+0  00000+0 0  9990
2 23420  64.4314  33.8054 5901369 270.0177  26.5361  3.34493315137936
MOLNIYA 3-47            
1 23642U 95042A   24157.75166053  .00000978  00000+0  00000+0 0  9991
2 23642  64.9596 349.4339 6957738 278.3096  14.3521  2.01932443211540
MOLNIYA 1-90            
1 24960U 97054A   24162.31082664 -.00000068  00000+0  20379-2 0  9998
2 24960  64.2777 359.9366 6094973 291.7182  15.9029  3.18686296231073
MOLNIYA 1-91            
1 25485U 98054A   24163.73743775 -.00000048  00000+0  00000+0 0  9990
2 25485  63.9879  36.3758 6824567 290.5493  11.9083  2.36441958195526
MOLNIYA 3-50            
1 25847U 99036A   24163.23477096 -.00000134  00000+0 -21410-1 0  9995
2 25847  63.4617 234.3909 7013480 282.2715  13.0810  2.00592064182658
